ONEWEB-0534             
1 55797U 23029B   23296.00002315 -.00006823  00000+0 -13772-1 0  9993
2 55797  87.9690 107.2153 0002204  79.5642 125.8078 13.34110512  5472
ONEWEB-0556             
1 55798U 23029C   23296.00002315  .00000968  00000+0  19240-2 0  9993
2 55798  87.9678 107.2143 0002314  65.2070 328.9656 13.33993918  5372
ONEWEB-0562             
1 55799U 23029D   23296.00002315 -.00005350  00000+0 -10799-1 0  9995
2 55799  87.9669 107.2037 0002381  83.8443 156.0453 13.34136178  5327
ONEWEB-0563             
1 55800U 23029E   23296.00002315  .00013128  00000+0  26335-1 0  9991
2 55800  87.9647 107.2231 0001800  69.1806  43.3586 13.34175054  5496
ONEWEB-0564             
1 55801U 23029F   23296.00002315 -.00006040  00000+0 -12194-1 0  9997
2 55801  87.9666 107.2012 0002359  85.0752 139.1641 13.34104278  5487
ONEWEB-0638             
1 55802U 23029G   23295.94623523  .00001693  00000+0  45316-2 0  9990
2 55802  87.8951 122.4883 0002386  73.0250 287.1141 13.14489392 32197
ONEWEB-0639             
1 55803U 23029H   23295.92727509  .00003393  00000+0  84430-2 0  9997
2 55803  87.9188 137.6886 0002645  58.9508 301.1884 13.19706677 31191
ONEWEB-0640             
1 55804U 23029J   23295.80243209  .00000034  00000+0  58457-4 0  9996
2 55804  87.8926 122.5271 0002703  70.0265 290.1156 13.14507306 32195
